{
  "type": "FeatureCollection",
  "features": [
    {
      "type": "Feature",
      "properties": {
        "norad_id": 38755,
        "name": "SPOT 6",
        "group": "resource",
        "lat": 44.09115418753144,
        "lon": 49.26779261956212,
        "alt_km": 693.393332612196,
        "timestamp": "2025-12-18T13:51:49.317571+00:00",
        "meta_object_name": "SPOT 6",
        "meta_object_id": "2012-047A",
        "meta_epoch": "2025-12-18T07:04:25.726944",
        "meta_mean_motion": 14.58537518,
        "meta_eccentricity": 0.00013204,
        "meta_inclination": 98.1571,
        "meta_ra_of_asc_node": 56.9774,
        "meta_arg_of_pericenter": 78.8894,
        "meta_mean_anomaly": 281.2454,
        "meta_ephemeris_type": 0,
        "meta_classification_type": "U",
        "meta_norad_cat_id": 38755,
        "meta_element_set_no": 999,
        "meta_rev_at_epoch": 70668,
        "meta_bstar": 7.0621767e-05,
        "meta_mean_motion_dot": 2.83e-06,
        "meta_mean_motion_ddot": 0,
        "tle_line1": "1 38755U 12047A   25352.29474221  .00000283  00000+0  70622-4 0  9993",
        "tle_line2": "2 38755  98.1571  56.9774 0001320  78.8894 281.2454 14.58537518706689"
      },
      "geometry": {
        "type": "Point",
        "coordinates": [
          49.26779261956212,
          44.09115418753144
        ]
      }
    },
    {
      "type": "Feature",
      "properties": {
        "norad_id": 39019,
        "name": "PLEIADES 1B",
        "group": "resource",
        "lat": -56.51292522421289,
        "lon": 77.69427100998853,
        "alt_km": 705.548268614366,
        "timestamp": "2025-12-18T13:51:49.317581+00:00",
        "meta_object_name": "PLEIADES 1B",
        "meta_object_id": "2012-068A",
        "meta_epoch": "2025-12-18T07:32:26.830752",
        "meta_mean_motion": 14.58557929,
        "meta_eccentricity": 0.00011614,
        "meta_inclination": 98.1793,
        "meta_ra_of_asc_node": 64.8782,
        "meta_arg_of_pericenter": 85.7606,
        "meta_mean_anomaly": 274.3726,
        "meta_ephemeris_type": 0,
        "meta_classification_type": "U",
        "meta_norad_cat_id": 39019,
        "meta_element_set_no": 999,
        "meta_rev_at_epoch": 69448,
        "meta_bstar": 7.2051617e-05,
        "meta_mean_motion_dot": 2.89e-06,
        "meta_mean_motion_ddot": 0,
        "tle_line1": "1 39019U 12068A   25352.31419943  .00000289  00000+0  72052-4 0  9998",
        "tle_line2": "2 39019  98.1793  64.8782 0001161  85.7606 274.3726 14.58557929694484"
      },
      "geometry": {
        "type": "Point",
        "coordinates": [
          77.69427100998853,
          -56.51292522421289
        ]
      }
    },
    {
      "type": "Feature",
      "properties": {
        "norad_id": 39030,
        "name": "GOKTURK 2",
        "group": "resource",
        "lat": 30.49495580053684,
        "lon": 18.507194084894618,
        "alt_km": 642.008181270513,
        "timestamp": "2025-12-18T13:51:49.317592+00:00",
        "meta_object_name": "GOKTURK 2",
        "meta_object_id": "2012-073A",
        "meta_epoch": "2025-12-18T06:40:44.599008",
        "meta_mean_motion": 14.75299771,
        "meta_eccentricity": 0.00011807,
        "meta_inclination": 97.6891,
        "meta_ra_of_asc_node": 193.6591,
        "meta_arg_of_pericenter": 107.3373,
        "meta_mean_anomaly": 252.7967,
        "meta_ephemeris_type": 0,
        "meta_classification_type": "U",
        "meta_norad_cat_id": 39030,
        "meta_element_set_no": 999,
        "meta_rev_at_epoch": 69783,
        "meta_bstar": 0.0001241325,
        "meta_mean_motion_dot": 7.94e-06,
        "meta_mean_motion_ddot": 0,
        "tle_line1": "1 39030U 12073A   25352.27829397  .00000794  00000+0  12413-3 0  9995",
        "tle_line2": "2 39030  97.6891 193.6591 0001180 107.3373 252.7967 14.75299771697838"
      },
      "geometry": {
        "type": "Point",
        "coordinates": [
          18.507194084894618,
          30.49495580053684
        ]
      }
    },
    {
      "type": "Feature",
      "properties": {
        "norad_id": 39084,
        "name": "LANDSAT 8",
        "group": "resource",
        "lat": 78.8704293414563,
        "lon": 13.377106550407843,
        "alt_km": 694.4160389829613,
        "timestamp": "2025-12-18T13:51:49.317602+00:00",
        "meta_object_name": "LANDSAT 8",
        "meta_object_id": "2013-008A",
        "meta_epoch": "2025-12-18T05:14:46.900896",
        "meta_mean_motion": 14.57108263,
        "meta_eccentricity": 0.00010789,
        "meta_inclination": 98.2067,
        "meta_ra_of_asc_node": 60.2111,
        "meta_arg_of_pericenter": 88.8251,
        "meta_mean_anomaly": 271.3071,
        "meta_ephemeris_type": 0,
        "meta_classification_type": "U",
        "meta_norad_cat_id": 39084,
        "meta_element_set_no": 999,
        "meta_rev_at_epoch": 67154,
        "meta_bstar": 8.6393484e-05,
        "meta_mean_motion_dot": 3.44e-06,
        "meta_mean_motion_ddot": 0,
        "tle_line1": "1 39084U 13008A   25352.21859839  .00000344  00000+0  86393-4 0  9991",
        "tle_line2": "2 39084  98.2067  60.2111 0001078  88.8251 271.3071 14.57108263671548"
      },
      "geometry": {
        "type": "Point",
        "coordinates": [
          13.377106550407843,
          78.8704293414563
        ]
      }
    },
    {
      "type": "Feature",
      "properties": {
        "norad_id": 39086,
        "name": "SARAL",
        "group": "resource",
        "lat": -78.89470859393217,
        "lon": -133.53272776447355,
        "alt_km": 791.9555096428358,
        "timestamp": "2025-12-18T13:51:49.317626+00:00",
        "meta_object_name": "SARAL",
        "meta_object_id": "2013-009A",
        "meta_epoch": "2025-12-18T05:52:12.027360",
        "meta_mean_motion": 14.32758938,
        "meta_eccentricity": 0.00029423,
        "meta_inclination": 98.5502,
        "meta_ra_of_asc_node": 176.1031,
        "meta_arg_of_pericenter": 98.3649,
        "meta_mean_anomaly": 261.7869,
        "meta_ephemeris_type": 0,
        "meta_classification_type": "U",
        "meta_norad_cat_id": 39086,
        "meta_element_set_no": 999,
        "meta_rev_at_epoch": 66969,
        "meta_bstar": 5.4073043e-05,
        "meta_mean_motion_dot": 1.04e-06,
        "meta_mean_motion_ddot": 0,
        "tle_line1": "1 39086U 13009A   25352.24458365  .00000104  00000+0  54073-4 0  9990",
        "tle_line2": "2 39086  98.5502 176.1031 0002942  98.3649 261.7869 14.32758938669697"
      },
      "geometry": {
        "type": "Point",
        "coordinates": [
          -133.53272776447355,
          -78.89470859393217
        ]
      }
    },
    {
      "type": "Feature",
      "properties": {
        "norad_id": 39150,
        "name": "GAOFEN-1",
        "group": "resource",
        "lat": -71.78573419901724,
        "lon": -141.9371733846751,
        "alt_km": 655.6052538461645,
        "timestamp": "2025-12-18T13:51:49.317639+00:00",
        "meta_object_name": "GAOFEN-1",
        "meta_object_id": "2013-018A",
        "meta_epoch": "2025-12-18T07:50:28.441248",
        "meta_mean_motion": 14.76544486,
        "meta_eccentricity": 0.00184786,
        "meta_inclination": 97.9327,
        "meta_ra_of_asc_node": 62.8875,
        "meta_arg_of_pericenter": 125.8554,
        "meta_mean_anomaly": 234.4375,
        "meta_ephemeris_type": 0,
        "meta_classification_type": "U",
        "meta_norad_cat_id": 39150,
        "meta_element_set_no": 999,
        "meta_rev_at_epoch": 68155,
        "meta_bstar": 0.00010907844,
        "meta_mean_motion_dot": 7.11e-06,
        "meta_mean_motion_ddot": 0,
        "tle_line1": "1 39150U 13018A   25352.32671807  .00000711  00000+0  10908-3 0  9991",
        "tle_line2": "2 39150  97.9327  62.8875 0018478 125.8554 234.4375 14.76544486681553"
      },
      "geometry": {
        "type": "Point",
        "coordinates": [
          -141.9371733846751,
          -71.78573419901724
        ]
      }
    },
    {
      "type": "Feature",
      "properties": {
        "norad_id": 39160,
        "name": "VNREDSAT 1",
        "group": "resource",
        "lat": 70.47761386606452,
        "lon": 24.476352792033843,
        "alt_km": 669.6329842947316,
        "timestamp": "2025-12-18T13:51:49.317651+00:00",
        "meta_object_name": "VNREDSAT 1",
        "meta_object_id": "2013-021B",
        "meta_epoch": "2025-12-18T06:58:43.171680",
        "meta_mean_motion": 14.64931453,
        "meta_eccentricity": 0.00011965,
        "meta_inclination": 97.9372,
        "meta_ra_of_asc_node": 47.3715,
        "meta_arg_of_pericenter": 77.5486,
        "meta_mean_anomaly": 282.5851,
        "meta_ephemeris_type": 0,
        "meta_classification_type": "U",
        "meta_norad_cat_id": 39160,
        "meta_element_set_no": 999,
        "meta_rev_at_epoch": 67380,
        "meta_bstar": 0.00012828534,
        "meta_mean_motion_dot": 6.41e-06,
        "meta_mean_motion_ddot": 0,
        "tle_line1": "1 39160U 13021B   25352.29077745  .00000641  00000+0  12829-3 0  9999",
        "tle_line2": "2 39160  97.9372  47.3715 0001196  77.5486 282.5851 14.64931453673804"
      },
      "geometry": {
        "type": "Point",
        "coordinates": [
          24.476352792033843,
          70.47761386606452
        ]
      }
    }
  ]
}